OBJECT_NAME,OBJECT_ID,EPOCH,MEAN_MOTION,ECCENTRICITY,INCLINATION,RA_OF_ASC_NODE,ARG_OF_PERICENTER,MEAN_ANOMALY,EPHEMERIS_TYPE,CLASSIFICATION_TYPE,NORAD_CAT_ID,ELEMENT_SET_NO,REV_AT_EPOCH,BSTAR,MEAN_MOTION_DOT,MEAN_MOTION_DDOT
STARLINK-30931,2023-180M,2025-10-10T00:10:35.114304,15.02532856,.0001042,43.0022,142.3594,268.4458,91.6265,0,U,58413,999,10506,-.49287582E-4,-.869E-5,0
STARLINK-30922,2023-180N,2025-10-10T01:04:20.859168,15.02550605,.00011973,43.0032,154.6205,281.1326,78.9382,0,U,58414,999,10492,.14987539E-3,.1822E-4,0
STARLINK-30949,2023-180P,2025-10-10T01:09:09.252000,15.02531941,.00010181,43.0010,154.6320,270.7556,89.3170,0,U,58415,999,10492,-.85060991E-4,-.1352E-4,0
STARLINK-30967,2023-180Q,2025-10-10T01:13:56.838720,15.02532088,.00011404,43.0023,154.6720,264.6699,95.4014,0,U,58416,999,10492,.6482345E-5,-.116E-5,0
STARLINK-30955,2023-180R,2025-10-10T00:35:35.555712,15.02550225,.00009912,43.0021,154.4734,277.8697,82.2033,0,U,58417,999,10492,-.36158797E-3,-.5086E-4,0
STARLINK-30895,2023-180S,2025-10-10T00:54:46.032192,15.02535645,.00010403,43.0012,154.5859,274.1128,85.9595,0,U,58418,999,10481,-.21720014E-4,-.497E-5,0
STARLINK-30917,2023-180T,2025-10-09T10:19:49.060416,15.27568270,.0001674,43.0031,77.9801,253.2534,106.8134,0,U,58419,999,10576,-.55471E-4,-.1788E-4,0
STARLINK-30899,2023-180U,2025-10-10T00:45:10.841472,15.02530967,.00011152,43.0020,154.5350,267.9514,92.1201,0,U,58420,999,10481,.32470324E-4,.235E-5,0
STARLINK-30902,2023-180V,2025-10-10T00:16:25.025664,15.02532259,.00011729,43.0025,154.3820,269.2889,90.7819,0,U,58421,999,10481,-.73691102E-4,-.1199E-4,0
STARLINK-30912,2023-180W,2025-10-09T16:27:21.432672,15.27572004,.00014232,43.0018,43.0867,269.2032,90.8656,0,U,58422,999,10620,-.4867757E-5,-.396E-5,0
STARLINK-30900,2023-180X,2025-10-09T23:23:48.499296,15.02539225,.00014869,43.0006,154.9205,259.6662,100.4013,0,U,58423,999,10480,.23644528E-3,.2992E-4,0
STARLINK-30908,2023-180Y,2025-10-10T00:33:38.466432,15.02529237,.00010483,43.0026,153.5277,274.0047,86.0675,0,U,58424,999,10493,-.38052398E-4,-.717E-5,0
STARLINK-30869,2023-183A,2025-10-09T23:43:25.682880,15.02536283,.00012021,43.0016,142.2996,266.3525,93.7180,0,U,58437,999,10404,-.44939611E-4,-.811E-5,0
STARLINK-30969,2023-183B,2025-10-09T23:48:13.560768,15.02548123,.00015741,43.0016,142.3222,272.0806,87.9856,0,U,58438,999,10404,.2149068E-3,.2701E-4,0
STARLINK-30951,2023-183C,2025-10-10T01:14:21.643296,15.02539533,.00011102,43.0031,141.9093,265.8626,94.2089,0,U,58439,999,10405,-.91090463E-4,-.1434E-4,0
STARLINK-30950,2023-183D,2025-10-09T10:53:56.389632,15.27629489,.0001179,42.9996,339.2244,266.9838,93.0878,0,U,58440,999,10590,-.47362E-3,-.13291E-3,0
STARLINK-30942,2023-183E,2025-10-09T15:16:01.074720,15.02535171,.0001184,43.0008,143.9554,269.6771,90.3936,0,U,58441,999,10399,-.86903E-4,-.1377E-4,0
STARLINK-30959,2023-183F,2025-10-10T07:03:43.889472,15.02533690,.00011608,43.0030,140.2933,270.8788,89.1921,0,U,58442,999,10409,-.47934456E-4,-.851E-5,0
STARLINK-30971,2023-183G,2025-10-10T00:55:12.134496,15.02527890,.00008968,43.0021,141.8052,60.1985,299.8946,0,U,58443,999,10405,-.10346762E-3,-.1601E-4,0
STARLINK-30963,2023-183H,2025-10-10T06:58:54.898752,15.02533791,.00011154,43.0027,140.2632,266.5592,93.5123,0,U,58444,999,10409,-.3061246E-4,-.617E-5,0
STARLINK-30961,2023-183J,2025-10-10T00:31:12.980928,15.02532023,.00012708,43.0024,141.6826,274.5887,85.4811,0,U,58445,999,10405,-.1140825E-3,-.1744E-4,0
STARLINK-30975,2023-183K,2025-10-09T22:28:28.800480,15.02531715,.00009182,43.0037,142.7493,275.4590,84.6147,0,U,58446,999,10405,-.21929599E-4,-.5E-5,0
STARLINK-30976,2023-183L,2025-10-10T00:16:49.798272,15.02535625,.00014365,43.0033,141.6410,265.7034,94.3644,0,U,58447,999,10405,-.29248262E-4,-.599E-5,0
STARLINK-30926,2023-183M,2025-10-10T00:12:01.612800,15.02532663,.00011156,43.0020,141.5443,271.7023,88.3692,0,U,58448,999,10405,-.45044308E-4,-.812E-5,0
STARLINK-30943,2023-183N,2025-10-09T14:38:34.145952,15.02530012,.0001093,43.0021,118.5736,267.8064,92.2653,0,U,58449,999,10428,-.10708E-4,-.348E-5,0
STARLINK-30946,2023-183P,2025-10-09T23:53:01.280544,15.02533598,.00011476,43.0016,142.3482,266.3371,93.7340,0,U,58450,999,10404,-.4272526E-4,-.781E-5,0
STARLINK-30944,2023-183Q,2025-10-09T22:50:41.452224,15.02534468,.00010761,43.0020,142.0234,269.7168,90.3551,0,U,58451,999,10401,-.84274986E-4,-.1342E-4,0
STARLINK-30928,2023-183R,2025-10-09T22:45:53.708256,15.02530290,.00011637,43.0015,141.9974,265.5702,94.5007,0,U,58452,999,10404,-.34031197E-4,-.663E-5,0
STARLINK-30957,2023-183S,2025-10-10T00:02:37.186656,15.02540830,.00009794,43.0021,142.3921,276.2966,83.7764,0,U,58453,999,10404,-.51086439E-4,-.894E-5,0
STARLINK-30966,2023-183T,2025-10-09T23:57:49.162752,15.02530138,.00012839,43.0017,142.3669,288.4508,71.6194,0,U,58454,999,10404,-.69696341E-4,-.1145E-4,0
STARLINK-30935,2023-183U,2025-10-10T01:04:46.496640,15.02538758,.0001305,43.0036,141.8534,275.3863,84.6831,0,U,58455,999,10405,-.85718134E-4,-.1361E-4,0
STARLINK-30960,2023-183V,2025-10-10T04:40:22.846368,15.27573034,.00035125,43.0081,91.0959,272.0329,88.0121,0,U,58456,999,10466,.6606845E-4,.1555E-4,0
STARLINK-30958,2023-183W,2025-10-09T23:06:41.078880,15.02526791,.000112,43.0020,142.1045,265.2456,94.8258,0,U,58457,999,10404,-.11973E-3,-.182E-4,0
STARLINK-30962,2023-183X,2025-10-10T00:07:14.013984,15.02534916,.00011974,43.0026,141.5618,267.0232,93.0473,0,U,58458,999,10405,.17991188E-4,.39E-6,0
STARLINK-30977,2023-183Y,2025-10-10T00:59:58.909920,15.02532219,.00011026,43.0034,141.8287,254.9155,105.1566,0,U,58459,999,10405,.3126928E-4,.219E-5,0
STARLINK-30947,2023-186A,2025-10-10T00:33:14.334912,15.02531438,.0001098,43.0033,166.4509,257.2970,102.7749,0,U,58473,999,10318,-.12865835E-4,-.377E-5,0
STARLINK-30995,2023-186B,2025-10-10T06:42:12.079872,15.30267499,.0002146,43.0022,18.3026,349.4239,10.6568,0,U,58474,999,10507,.14583321E-2,.43576E-3,0
STARLINK-30941,2023-186C,2025-10-10T00:23:39.367968,15.02531883,.00009236,43.0022,166.4002,279.4916,80.5822,0,U,58475,999,10318,.28301187E-3,.3621E-4,0
STARLINK-30980,2023-186D,2025-10-09T22:43:07.184352,15.02534805,.00016569,43.0040,166.7329,264.7283,95.3370,0,U,58476,999,10317,.19124831E-4,.55E-6,0
STARLINK-30965,2023-186E,2025-10-10T01:34:10.481376,15.02560539,.00014285,43.0062,152.9005,276.1570,83.9110,0,U,58477,999,10334,-.49409978E-3,-.6876E-4,0
STARLINK-30990,2023-186F,2025-10-10T01:49:47.181792,15.02530844,.00012936,43.0038,165.9868,263.6872,96.3823,0,U,58478,999,10323,.23217273E-4,.11E-5,0
STARLINK-30984,2023-186H,2025-10-10T00:42:39.629376,15.02549954,.00012156,43.0024,165.6312,261.7013,98.3691,0,U,58480,999,10319,-.42340719E-3,-.592E-4,0
STARLINK-30956,2023-186J,2025-10-09T23:30:32.522112,15.02532027,.00011614,43.0021,141.6996,265.5204,94.5506,0,U,58481,999,10346,-.40699653E-4,-.753E-5,0
STARLINK-30997,2023-186K,2025-10-10T01:06:38.012256,15.02529148,.00010309,43.0043,165.7357,279.6783,80.3943,0,U,58482,999,10319,-.11414235E-4,-.358E-5,0
STARLINK-30994,2023-186L,2025-10-10T07:08:18.804768,15.27577048,.00021131,43.0078,29.5048,294.1764,65.8866,0,U,58483,999,10480,-.22160792E-4,-.872E-5,0
STARLINK-30991,2023-186M,2025-10-09T02:17:40.165728,15.02530621,.00010474,43.0032,170.6627,267.5355,92.5367,0,U,58484,999,10304,.15980838E-3,.1955E-4,0
STARLINK-30979,2023-186N,2025-10-10T01:40:12.042912,15.02537523,.00013372,43.0023,165.9364,269.4222,90.6468,0,U,58485,999,10318,.45118698E-4,.406E-5,0
STARLINK-31005,2023-186P,2025-10-09T22:23:56.872032,15.02533528,.0001203,43.0040,166.6328,275.6252,84.4454,0,U,58486,999,10316,-.18241E-4,-.45E-5,0
STARLINK-30987,2023-186Q,2025-10-09T09:33:19.143072,15.02537476,.0001175,43.0021,169.4978,279.4669,80.6041,0,U,58487,999,10308,-.3057E-4,-.616E-5,0
STARLINK-31000,2023-186R,2025-10-10T01:25:49.677600,15.02513691,.00012457,43.0011,165.8595,267.7974,92.2725,0,U,58488,999,10318,-.30295077E-3,-.4291E-4,0
STARLINK-30993,2023-186S,2025-10-10T01:21:00.993600,15.02525623,.00014889,43.0017,165.8359,261.9761,98.0912,0,U,58489,999,10318,-.14783879E-3,-.22E-4,0
STARLINK-30978,2023-186T,2025-10-10T01:16:14.000448,15.02513687,.00010564,43.0032,165.8105,292.0274,68.0456,0,U,58490,999,10318,-.23751843E-3,-.3409E-4,0
STARLINK-30953,2023-186U,2025-10-10T07:45:47.458080,15.27562807,.00013691,43.0038,36.6860,226.9741,133.0996,0,U,58491,999,10489,.14249715E-3,.3659E-4,0
STARLINK-30986,2023-186V,2025-10-10T01:01:50.541312,15.02531470,.00010311,43.0019,165.7341,270.3336,89.7389,0,U,58492,999,10318,-.85333352E-4,-.1356E-4,0
STARLINK-30985,2023-186W,2025-10-10T00:57:02.433600,15.02532990,.00012478,43.0040,165.7082,272.9720,87.0979,0,U,58493,999,10318,-.21262074E-4,-.491E-5,0
STARLINK-30981,2023-186X,2025-10-09T16:53:36.570336,15.02532007,.00011704,43.0033,167.4911,274.9970,85.0738,0,U,58494,999,10313,-.77645418E-4,-.1252E-4,0
STARLINK-31002,2023-186Y,2025-10-10T00:47:27.138336,15.02533050,.00012443,43.0035,165.6587,264.1355,95.9346,0,U,58495,999,10335,-.23750111E-4,-.524E-5,0
STARLINK-31026,2023-191A,2025-10-10T06:47:17.856384,15.02534671,.00012756,43.0027,204.3291,288.3034,71.7669,0,U,58508,999,10280,-.1031093E-4,-.343E-5,0
STARLINK-31020,2023-191B,2025-10-10T05:06:56.536704,15.02531753,.00012747,43.0029,205.5183,262.1554,97.9144,0,U,58509,999,10278,-.17861319E-4,-.445E-5,0
STARLINK-30989,2023-191C,2025-10-10T03:53:04.445664,15.02532688,.00008712,43.0023,204.2851,269.2449,90.8293,0,U,58510,999,10282,-.260521E-5,-.239E-5,0
STARLINK-30968,2023-191D,2025-10-10T03:48:17.002368,15.02532131,.00009006,43.0018,204.2605,270.6846,89.3893,0,U,58511,999,10279,-.58102753E-4,-.988E-5,0
STARLINK-30982,2023-191E,2025-10-09T22:56:18.275712,15.02531818,.00005393,43.0031,205.3240,256.8012,103.2770,0,U,58512,999,10276,-.15616413E-3,-.2312E-4,0
STARLINK-30998,2023-191F,2025-10-10T05:14:25.069344,15.02533131,.00011545,43.0021,203.8480,270.0790,89.9920,0,U,58513,999,10283,-.1390287E-3,-.2081E-4,0
